GLOBALSTAR M045         
1 25676U 99019A   25279.96761896 -.00000049  00000+0  39535-3 0  9992
2 25676  51.9995 346.6710 0000680 105.5484  65.2750 12.27065916207119
GLOBALSTAR M019         
1 25677U 99019B   25280.02915601 -.00000137  00000+0 -49314-3 0  9992
2 25677  51.9851 124.7306 0001358 143.5571  23.5080 12.13876649198726
GLOBALSTAR M044         
1 25678U 99019C   25279.89340656 -.00000078  00000+0  74692-4 0  9999
2 25678  51.9952  90.4413 0005274 252.1802 264.0892 11.90260616184624
GLOBALSTAR M042         
1 25679U 99019D   25279.97490535 -.00000066  00000+0  24895-3 0  9997
2 25679  51.9996  95.3712 0003357 152.9490  14.1195 12.22088979198923
GLOBALSTAR M025         
1 25770U 99031A   25279.95978597 -.00000071  00000+0 -99870-4 0  9993
2 25770  51.9802 260.3427 0002339 338.0725  50.7426 11.22558222494266
GLOBALSTAR M049         
1 25771U 99031B   25279.98182886 -.00000117  00000+0 -18008-2 0  9998
2 25771  51.9881 300.6760 0002676 207.0105 153.0552 11.12120316129869
GLOBALSTAR M047         
1 25772U 99031C   25279.94675276 -.00000063  00000+0  18405-3 0  9996
2 25772  51.9828 287.0464 0016478  94.2043 266.0646 11.31930159483768
GLOBALSTAR M052         
1 25773U 99031D   25279.86286507 -.00000080  00000+0 -46572-3 0  9999
2 25773  51.9885  48.0412 0002432  16.3718 157.2170 11.15060813490965
